{
  "type": "FeatureCollection",
  "features": [
    {
      "type": "Feature",
      "properties": {
        "norad_id": 38833,
        "name": "GPS BIIF-3  (PRN 24)",
        "group": "gps-ops",
        "lat": -10.268046830323796,
        "lon": -20.98965847203166,
        "alt_km": 20470.9299099304,
        "timestamp": "2025-12-10T14:53:37.352135+00:00",
        "meta_object_name": "GPS BIIF-3  (PRN 24)",
        "meta_object_id": "2012-053A",
        "meta_epoch": "2025-12-09T20:38:00.573504",
        "meta_mean_motion": 2.00564945,
        "meta_eccentricity": 0.0175755,
        "meta_inclination": 53.557,
        "meta_ra_of_asc_node": 151.3565,
        "meta_arg_of_pericenter": 63.953,
        "meta_mean_anomaly": 297.8432,
        "meta_ephemeris_type": 0,
        "meta_classification_type": "U",
        "meta_norad_cat_id": 38833,
        "meta_element_set_no": 999,
        "meta_rev_at_epoch": 9564,
        "meta_bstar": 0,
        "meta_mean_motion_dot": 6.8e-07,
        "meta_mean_motion_ddot": 0,
        "tle_line1": "1 38833U 12053A   25343.85972886  .00000068  00000+0  00000+0 0  9998",
        "tle_line2": "2 38833  53.5570 151.3565 0175755  63.9530 297.8432  2.00564945 95648"
      },
      "geometry": {
        "type": "Point",
        "coordinates": [
          -20.98965847203166,
          -10.268046830323796
        ]
      }
    },
    {
      "type": "Feature",
      "properties": {
        "norad_id": 39166,
        "name": "GPS BIIF-4  (PRN 27)",
        "group": "gps-ops",
        "lat": -51.116546585147574,
        "lon": -144.87407885235336,
        "alt_km": 20372.923005016,
        "timestamp": "2025-12-10T14:53:37.352145+00:00",
        "meta_object_name": "GPS BIIF-4  (PRN 27)",
        "meta_object_id": "2013-023A",
        "meta_epoch": "2025-12-09T05:24:11.844576",
        "meta_mean_motion": 2.00565099,
        "meta_eccentricity": 0.01376828,
        "meta_inclination": 54.6551,
        "meta_ra_of_asc_node": 276.7112,
        "meta_arg_of_pericenter": 48.5762,
        "meta_mean_anomaly": 312.6137,
        "meta_ephemeris_type": 0,
        "meta_classification_type": "U",
        "meta_norad_cat_id": 39166,
        "meta_element_set_no": 999,
        "meta_rev_at_epoch": 9207,
        "meta_bstar": 0,
        "meta_mean_motion_dot": -4.9e-07,
        "meta_mean_motion_ddot": 0,
        "tle_line1": "1 39166U 13023A   25343.22513709 -.00000049  00000+0  00000+0 0  9992",
        "tle_line2": "2 39166  54.6551 276.7112 0137682  48.5762 312.6137  2.00565099 92075"
      },
      "geometry": {
        "type": "Point",
        "coordinates": [
          -144.87407885235336,
          -51.116546585147574
        ]
      }
    },
    {
      "type": "Feature",
      "properties": {
        "norad_id": 39533,
        "name": "GPS BIIF-5  (PRN 30)",
        "group": "gps-ops",
        "lat": -48.265420146300464,
        "lon": 101.28611989739268,
        "alt_km": 20098.2600226549,
        "timestamp": "2025-12-10T14:53:37.352156+00:00",
        "meta_object_name": "GPS BIIF-5  (PRN 30)",
        "meta_object_id": "2014-008A",
        "meta_epoch": "2025-12-09T17:13:43.085856",
        "meta_mean_motion": 2.00574232,
        "meta_eccentricity": 0.00791313,
        "meta_inclination": 53.6308,
        "meta_ra_of_asc_node": 157.0479,
        "meta_arg_of_pericenter": 226.4542,
        "meta_mean_anomaly": 132.8924,
        "meta_ephemeris_type": 0,
        "meta_classification_type": "U",
        "meta_norad_cat_id": 39533,
        "meta_element_set_no": 999,
        "meta_rev_at_epoch": 8588,
        "meta_bstar": 0,
        "meta_mean_motion_dot": 6.7e-07,
        "meta_mean_motion_ddot": 0,
        "tle_line1": "1 39533U 14008A   25343.71785979  .00000067  00000+0  00000+0 0  9997",
        "tle_line2": "2 39533  53.6308 157.0479 0079131 226.4542 132.8924  2.00574232 85882"
      },
      "geometry": {
        "type": "Point",
        "coordinates": [
          101.28611989739268,
          -48.265420146300464
        ]
      }
    },
    {
      "type": "Feature",
      "properties": {
        "norad_id": 39741,
        "name": "GPS BIIF-6  (PRN 06)",
        "group": "gps-ops",
        "lat": 56.4872151604202,
        "lon": 64.30819461310654,
        "alt_km": 20241.156962642846,
        "timestamp": "2025-12-10T14:53:37.352167+00:00",
        "meta_object_name": "GPS BIIF-6  (PRN 06)",
        "meta_object_id": "2014-026A",
        "meta_epoch": "2025-12-10T00:01:18.987744",
        "meta_mean_motion": 2.00561492,
        "meta_eccentricity": 0.00391139,
        "meta_inclination": 56.5847,
        "meta_ra_of_asc_node": 338.8829,
        "meta_arg_of_pericenter": 318.5217,
        "meta_mean_anomaly": 41.1927,
        "meta_ephemeris_type": 0,
        "meta_classification_type": "U",
        "meta_norad_cat_id": 39741,
        "meta_element_set_no": 999,
        "meta_rev_at_epoch": 8474,
        "meta_bstar": 0,
        "meta_mean_motion_dot": -8.4e-07,
        "meta_mean_motion_ddot": 0,
        "tle_line1": "1 39741U 14026A   25344.00091421 -.00000084  00000+0  00000+0 0  9993",
        "tle_line2": "2 39741  56.5847 338.8829 0039113 318.5217  41.1927  2.00561492 84742"
      },
      "geometry": {
        "type": "Point",
        "coordinates": [
          64.30819461310654,
          56.4872151604202
        ]
      }
    },
    {
      "type": "Feature",
      "properties": {
        "norad_id": 40105,
        "name": "GPS BIIF-7  (PRN 09)",
        "group": "gps-ops",
        "lat": 19.57002995194424,
        "lon": 110.26124866211325,
        "alt_km": 20187.608992807778,
        "timestamp": "2025-12-10T14:53:37.352177+00:00",
        "meta_object_name": "GPS BIIF-7  (PRN 09)",
        "meta_object_id": "2014-045A",
        "meta_epoch": "2025-12-09T14:09:41.937408",
        "meta_mean_motion": 2.00572274,
        "meta_eccentricity": 0.0032763,
        "meta_inclination": 55.2273,
        "meta_ra_of_asc_node": 96.0246,
        "meta_arg_of_pericenter": 119.7913,
        "meta_mean_anomaly": 240.5219,
        "meta_ephemeris_type": 0,
        "meta_classification_type": "U",
        "meta_norad_cat_id": 40105,
        "meta_element_set_no": 999,
        "meta_rev_at_epoch": 8227,
        "meta_bstar": 0,
        "meta_mean_motion_dot": 2e-08,
        "meta_mean_motion_ddot": 0,
        "tle_line1": "1 40105U 14045A   25343.59006872  .00000002  00000+0  00000+0 0  9998",
        "tle_line2": "2 40105  55.2273  96.0246 0032763 119.7913 240.5219  2.00572274 82276"
      },
      "geometry": {
        "type": "Point",
        "coordinates": [
          110.26124866211325,
          19.57002995194424
        ]
      }
    },
    {
      "type": "Feature",
      "properties": {
        "norad_id": 40294,
        "name": "GPS BIIF-8  (PRN 03)",
        "group": "gps-ops",
        "lat": 50.13786212692888,
        "lon": 166.81103704417535,
        "alt_km": 20060.115666389134,
        "timestamp": "2025-12-10T14:53:37.352188+00:00",
        "meta_object_name": "GPS BIIF-8  (PRN 03)",
        "meta_object_id": "2014-068A",
        "meta_epoch": "2025-12-09T11:13:35.595840",
        "meta_mean_motion": 2.00564545,
        "meta_eccentricity": 0.00607875,
        "meta_inclination": 56.8554,
        "meta_ra_of_asc_node": 38.2726,
        "meta_arg_of_pericenter": 69.25,
        "meta_mean_anomaly": 291.455,
        "meta_ephemeris_type": 0,
        "meta_classification_type": "U",
        "meta_norad_cat_id": 40294,
        "meta_element_set_no": 999,
        "meta_rev_at_epoch": 8140,
        "meta_bstar": 0,
        "meta_mean_motion_dot": -8.3e-07,
        "meta_mean_motion_ddot": 0,
        "tle_line1": "1 40294U 14068A   25343.46777310 -.00000083  00000+0  00000+0 0  9990",
        "tle_line2": "2 40294  56.8554  38.2726 0060787  69.2500 291.4550  2.00564545 81402"
      },
      "geometry": {
        "type": "Point",
        "coordinates": [
          166.81103704417535,
          50.13786212692888
        ]
      }
    },
    {
      "type": "Feature",
      "properties": {
        "norad_id": 40534,
        "name": "GPS BIIF-9  (PRN 26)",
        "group": "gps-ops",
        "lat": 15.012992485349795,
        "lon": -136.4343039411135,
        "alt_km": 19912.206724200554,
        "timestamp": "2025-12-10T14:53:37.352198+00:00",
        "meta_object_name": "GPS BIIF-9  (PRN 26)",
        "meta_object_id": "2015-013A",
        "meta_epoch": "2025-12-10T02:18:43.740576",
        "meta_mean_motion": 2.0056274,
        "meta_eccentricity": 0.01069396,
        "meta_inclination": 53.1981,
        "meta_ra_of_asc_node": 211.9997,
        "meta_arg_of_pericenter": 38.4152,
        "meta_mean_anomaly": 322.4192,
        "meta_ephemeris_type": 0,
        "meta_classification_type": "U",
        "meta_norad_cat_id": 40534,
        "meta_element_set_no": 999,
        "meta_rev_at_epoch": 7803,
        "meta_bstar": 0,
        "meta_mean_motion_dot": 1.5e-07,
        "meta_mean_motion_ddot": 0,
        "tle_line1": "1 40534U 15013A   25344.09633959  .00000015  00000+0  00000+0 0  9992",
        "tle_line2": "2 40534  53.1981 211.9997 0106939  38.4152 322.4192  2.00562740 78031"
      },
      "geometry": {
        "type": "Point",
        "coordinates": [
          -136.4343039411135,
          15.012992485349795
        ]
      }
    }
  ]
}